[{"OBJECT_NAME":"GJZ 02","OBJECT_ID":"2024-238B","EPOCH":"2026-03-09T22:57:25.494912","MEAN_MOTION":13.75187021,"ECCENTRICITY":0.00076974,"INCLINATION":59.9175,"RA_OF_ASC_NODE":191.0816,"ARG_OF_PERICENTER":96.9704,"MEAN_ANOMALY":263.2179,"EPHEMERIS_TYPE":0,"CLASSIFICATION_TYPE":"U","NORAD_CAT_ID":62291,"ELEMENT_SET_NO":999,"REV_AT_EPOCH":6263,"BSTAR":0.00012934225,"MEAN_MOTION_DOT":5.0e-8,"MEAN_MOTION_DDOT":0},{"OBJECT_NAME":"COSMOS 2361","OBJECT_ID":"1998-076A","EPOCH":"2026-03-09T16:18:49.320864","MEAN_MOTION":13.73227656,"ECCENTRICITY":0.00320462,"INCLINATION":82.9305,"RA_OF_ASC_NODE":279.7974,"ARG_OF_PERICENTER":26.1209,"MEAN_ANOMALY":39.4125,"EPHEMERIS_TYPE":0,"CLASSIFICATION_TYPE":"U","NORAD_CAT_ID":25590,"ELEMENT_SET_NO":999,"REV_AT_EPOCH":36304,"BSTAR":6.9046963e-5,"MEAN_MOTION_DOT":7.9e-7,"MEAN_MOTION_DDOT":0}]
